{"type": "FeatureCollection", "features": [ {"type": "Feature", "properties": {"norad_id": 32152, "name": "FENGYUN 1C DEB", "group": "fengyun-1c-debris", "lat": 48.99772864837366, "lon": 131.00044815100958, "alt_km": 738.4659142084693, "timestamp": "2025-12-06T09:34:17.199325+00:00", "meta": {"OBJECT_NAME": "FENGYUN 1C DEB", "OBJECT_ID": "1999-025CSW", "EPOCH": "2025-12-04T06:13:51.350304", "MEAN_MOTION": 14.56482444, "ECCENTRICITY": 0.0055324, "INCLINATION": 98.7599, "RA_OF_ASC_NODE": 138.9704, "ARG_OF_PERICENTER": 227.1779, "MEAN_ANOMALY": 132.4761, "EPHEMERIS_TYPE": 0, "CLASSIFICATION_TYPE": "U", "NORAD_CAT_ID": 32152, "ELEMENT_SET_NO": 999, "REV_AT_EPOCH": 62489, "BSTAR": 0.0046274, "MEAN_MOTION_DOT": 0.00021013, "MEAN_MOTION_DDOT": 0}, "tle": {"line1": "1 32152U 99025CSW 25338.25962211  .00021013  00000+0  46274-2 0  9998", "line2": "2 32152  98.7599 138.9704 0055324 227.1779 132.4761 14.56482444624893"}}, "geometry": {"type": "Point", "coordinates": [131.00044815100958, 48.99772864837366]}}, {"type": "Feature", "properties": {"norad_id": 32153, "name": "FENGYUN 1C DEB", "group": "fengyun-1c-debris", "lat": -18.854958721607314, "lon": 0.05502174901556837, "alt_km": 623.5965666693519, "timestamp": "2025-12-06T09:34:17.199336+00:00", "meta": {"OBJECT_NAME": "FENGYUN 1C DEB", "OBJECT_ID": "1999-025CSX", "EPOCH": "2025-12-01T12:36:09.592128", "MEAN_MOTION": 14.48662778, "ECCENTRICITY": 0.02070632, "INCLINATION": 98.7701, "RA_OF_ASC_NODE": 178.0134, "ARG_OF_PERICENTER": 255.2407, "MEAN_ANOMALY": 102.576, "EPHEMERIS_TYPE": 0, "CLASSIFICATION_TYPE": "U", "NORAD_CAT_ID": 32153, "ELEMENT_SET_NO": 999, "REV_AT_EPOCH": 97061, "BSTAR": 0.00036967855, "MEAN_MOTION_DOT": 1.766e-05, "MEAN_MOTION_DDOT": 0}, "tle": {"line1": "1 32153U 99025CSX 25335.52511102  .00001766  00000+0  36968-3 0  9998", "line2": "2 32153  98.7701 178.0134 0207063 255.2407 102.5760 14.48662778970612"}}, "geometry": {"type": "Point", "coordinates": [0.05502174901556837, -18.854958721607314]}}, {"type": "Feature", "properties": {"norad_id": 32155, "name": "FENGYUN 1C DEB", "group": "fengyun-1c-debris", "lat": -0.5075403212212837, "lon": 89.72393119579903, "alt_km": 774.7089003667525, "timestamp": "2025-12-06T09:34:17.199346+00:00", "meta": {"OBJECT_NAME": "FENGYUN 1C DEB", "OBJECT_ID": "1999-025CSZ", "EPOCH": "2025-12-04T13:09:10.027872", "MEAN_MOTION": 14.32912866, "ECCENTRICITY": 0.0069286, "INCLINATION": 98.9526, "RA_OF_ASC_NODE": 267.8922, "ARG_OF_PERICENTER": 264.2615, "MEAN_ANOMALY": 95.0665, "EPHEMERIS_TYPE": 0, "CLASSIFICATION_TYPE": "U", "NORAD_CAT_ID": 32155, "ELEMENT_SET_NO": 999, "REV_AT_EPOCH": 70105, "BSTAR": 0.001161, "MEAN_MOTION_DOT": 3.211e-05, "MEAN_MOTION_DDOT": 0}, "tle": {"line1": "1 32155U 99025CSZ 25338.54803273  .00003211  00000+0  11610-2 0  9991", "line2": "2 32155  98.9526 267.8922 0069286 264.2615  95.0665 14.32912866701056"}}, "geometry": {"type": "Point", "coordinates": [89.72393119579903, -0.5075403212212837]}}, {"type": "Feature", "properties": {"norad_id": 32156, "name": "FENGYUN 1C DEB", "group": "fengyun-1c-debris", "lat": -31.390738376283, "lon": -36.297689462303744, "alt_km": 833.7924118822975, "timestamp": "2025-12-06T09:34:17.199356+00:00", "meta": {"OBJECT_NAME": "FENGYUN 1C DEB", "OBJECT_ID": "1999-025CTA", "EPOCH": "2025-11-28T04:22:59.204352", "MEAN_MOTION": 14.31912456, "ECCENTRICITY": 0.00824268, "INCLINATION": 99.3546, "RA_OF_ASC_NODE": 140.6244, "ARG_OF_PERICENTER": 99.0063, "MEAN_ANOMALY": 262.0458, "EPHEMERIS_TYPE": 0, "CLASSIFICATION_TYPE": "U", "NORAD_CAT_ID": 32156, "ELEMENT_SET_NO": 999, "REV_AT_EPOCH": 64612, "BSTAR": 0.00036827986, "MEAN_MOTION_DOT": 9.74e-06, "MEAN_MOTION_DDOT": 0}, "tle": {"line1": "1 32156U 99025CTA 25332.18262968  .00000974  00000+0  36828-3 0  9998", "line2": "2 32156  99.3546 140.6244 0082426  99.0063 262.0458 14.31912456646127"}}, "geometry": {"type": "Point", "coordinates": [-36.297689462303744, -31.390738376283]}}, {"type": "Feature", "properties": {"norad_id": 32160, "name": "FENGYUN 1C DEB", "group": "fengyun-1c-debris", "lat": -67.21187461446685, "lon": -64.49351656997484, "alt_km": 810.3952305453258, "timestamp": "2025-12-06T09:34:17.199367+00:00", "meta": {"OBJECT_NAME": "FENGYUN 1C DEB", "OBJECT_ID": "1999-025CTE", "EPOCH": "2025-12-04T06:18:04.586976", "MEAN_MOTION": 14.37533289, "ECCENTRICITY": 0.0082414, "INCLINATION": 98.8812, "RA_OF_ASC_NODE": 135.1511, "ARG_OF_PERICENTER": 23.9168, "MEAN_ANOMALY": 336.5812, "EPHEMERIS_TYPE": 0, "CLASSIFICATION_TYPE": "U", "NORAD_CAT_ID": 32160, "ELEMENT_SET_NO": 999, "REV_AT_EPOCH": 95765, "BSTAR": 0.00077758, "MEAN_MOTION_DOT": 2.375e-05, "MEAN_MOTION_DDOT": 0}, "tle": {"line1": "1 32160U 99025CTE 25338.26255309  .00002375  00000+0  77758-3 0  9993", "line2": "2 32160  98.8812 135.1511 0082414  23.9168 336.5812 14.37533289957650"}}, "geometry": {"type": "Point", "coordinates": [-64.49351656997484, -67.21187461446685]}}, {"type": "Feature", "properties": {"norad_id": 32161, "name": "FENGYUN 1C DEB", "group": "fengyun-1c-debris", "lat": 38.13904157263548, "lon": -87.76094725748449, "alt_km": 974.6140745534212, "timestamp": "2025-12-06T09:34:17.199376+00:00", "meta": {"OBJECT_NAME": "FENGYUN 1C DEB", "OBJECT_ID": "1999-025CTF", "EPOCH": "2025-12-03T02:05:41.290080", "MEAN_MOTION": 14.01850718, "ECCENTRICITY": 0.01352524, "INCLINATION": 98.8291, "RA_OF_ASC_NODE": 82.0226, "ARG_OF_PERICENTER": 307.2576, "MEAN_ANOMALY": 51.6317, "EPHEMERIS_TYPE": 0, "CLASSIFICATION_TYPE": "U", "NORAD_CAT_ID": 32161, "ELEMENT_SET_NO": 999, "REV_AT_EPOCH": 63294, "BSTAR": 0.00046609948, "MEAN_MOTION_DOT": 7.24e-06, "MEAN_MOTION_DDOT": 0}, "tle": {"line1": "1 32161U 99025CTF 25337.08728345  .00000724  00000+0  46610-3 0  9997", "line2": "2 32161  98.8291  82.0226 0135252 307.2576  51.6317 14.01850718632942"}}, "geometry": {"type": "Point", "coordinates": [-87.76094725748449, 38.13904157263548]}}, {"type": "Feature", "properties": {"norad_id": 32162, "name": "FENGYUN 1C DEB", "group": "fengyun-1c-debris", "lat": -47.8665858196294, "lon": -165.99393441037708, "alt_km": 667.5827441693309, "timestamp": "2025-12-06T09:34:17.199387+00:00", "meta": {"OBJECT_NAME": "FENGYUN 1C DEB", "OBJECT_ID": "1999-025CTG", "EPOCH": "2025-12-03T01:40:46.349760", "MEAN_MOTION": 14.61809926, "ECCENTRICITY": 0.00478765, "INCLINATION": 99.4653, "RA_OF_ASC_NODE": 20.8265, "ARG_OF_PERICENTER": 199.6333, "MEAN_ANOMALY": 160.3022, "EPHEMERIS_TYPE": 0, "CLASSIFICATION_TYPE": "U", "NORAD_CAT_ID": 32162, "ELEMENT_SET_NO": 999, "REV_AT_EPOCH": 94777, "BSTAR": 0.001930688, "MEAN_MOTION_DOT": 9.749e-05, "MEAN_MOTION_DDOT": 0}, "tle": {"line1": "1 32162U 99025CTG 25337.06998090  .00009749  00000+0  19307-2 0  9990", "line2": "2 32162  99.4653  20.8265 0047876 199.6333 160.3022 14.61809926947775"}}, "geometry": {"type": "Point", "coordinates": [-165.99393441037708, -47.8665858196294]}}, {"type": "Feature", "properties": {"norad_id": 32167, "name": "FENGYUN 1C DEB", "group": "fengyun-1c-debris", "lat": 76.95733256863407, "lon": -64.98463081796707, "alt_km": 663.4060816722003, "timestamp": "2025-12-06T09:34:17.199397+00:00", "meta": {"OBJECT_NAME": "FENGYUN 1C DEB", "OBJECT_ID": "1999-025CTM", "EPOCH": "2025-12-02T04:31:04.305792", "MEAN_MOTION": 14.30943689, "ECCENTRICITY": 0.01648923, "INCLINATION": 98.4751, "RA_OF_ASC_NODE": 330.9721, "ARG_OF_PERICENTER": 88.2816, "MEAN_ANOMALY": 273.7246, "EPHEMERIS_TYPE": 0, "CLASSIFICATION_TYPE": "U", "NORAD_CAT_ID": 32167, "ELEMENT_SET_NO": 999, "REV_AT_EPOCH": 62524, "BSTAR": 0.00035916746, "MEAN_MOTION_DOT": 1.051e-05, "MEAN_MOTION_DDOT": 0}, "tle": {"line1": "1 32167U 99025CTM 25336.18824428  .00001051  00000+0  35917-3 0  9994", "line2": "2 32167  98.4751 330.9721 0164892  88.2816 273.7246 14.30943689625240"}}, "geometry": {"type": "Point", "coordinates": [-64.98463081796707, 76.95733256863407]}}, {"type": "Feature", "properties": {"norad_id": 32168, "name": "FENGYUN 1C DEB", "group": "fengyun-1c-debris", "lat": -77.7518727223946, "lon": 119.89380516875212, "alt_km": 782.8186817128553, "timestamp": "2025-12-06T09:34:17.199407+00:00", "meta": {"OBJECT_NAME": "FENGYUN 1C DEB", "OBJECT_ID": "1999-025CTN", "EPOCH": "2025-12-03T10:56:49.879968", "MEAN_MOTION": 13.85965652, "ECCENTRICITY": 0.02426884, "INCLINATION": 101.6572, "RA_OF_ASC_NODE": 44.2578, "ARG_OF_PERICENTER": 260.6008, "MEAN_ANOMALY": 96.7629, "EPHEMERIS_TYPE": 0, "CLASSIFICATION_TYPE": "U", "NORAD_CAT_ID": 32168, "ELEMENT_SET_NO": 999, "REV_AT_EPOCH": 63351, "BSTAR": 0.005492601, "MEAN_MOTION_DOT": 7.899e-05, "MEAN_MOTION_DDOT": 0}, "tle": {"line1": "1 32168U 99025CTN 25337.45613287  .00007899  00000+0  54926-2 0  9991", "line2": "2 32168 101.6572  44.2578 0242688 260.6008  96.7629 13.85965652633513"}}, "geometry": {"type": "Point", "coordinates": [119.89380516875212, -77.7518727223946]}}, {"type": "Feature", "properties": {"norad_id": 32169, "name": "FENGYUN 1C DEB", "group": "fengyun-1c-debris", "lat": 32.360369134014675, "lon": -5.741506786485963, "alt_km": 644.1360235310667, "timestamp": "2025-12-06T09:34:17.199417+00:00", "meta": {"OBJECT_NAME": "FENGYUN 1C DEB", "OBJECT_ID": "1999-025CTP", "EPOCH": "2025-12-05T11:37:37.993728", "MEAN_MOTION": 14.67195224, "ECCENTRICITY": 0.00338641, "INCLINATION": 98.5573, "RA_OF_ASC_NODE": 167.8293, "ARG_OF_PERICENTER": 144.0764, "MEAN_ANOMALY": 216.2725, "EPHEMERIS_TYPE": 0, "CLASSIFICATION_TYPE": "U", "NORAD_CAT_ID": 32169, "ELEMENT_SET_NO": 999, "REV_AT_EPOCH": 96512, "BSTAR": 0.0076875344, "MEAN_MOTION_DOT": 0.00043856, "MEAN_MOTION_DDOT": 0}, "tle": {"line1": "1 32169U 99025CTP 25339.48446752  .00043856  00000+0  76875-2 0  9998", "line2": "2 32169  98.5573 167.8293 0033864 144.0764 216.2725 14.67195224965125"}}, "geometry": {"type": "Point", "coordinates": [-5.741506786485963, 32.360369134014675]}}]}